[{"OBJECT_NAME":"OBJECT F","OBJECT_ID":"2023-072F","EPOCH":"2026-03-09T23:31:37.259904","MEAN_MOTION":15.29470958,"ECCENTRICITY":0.00062878,"INCLINATION":97.5173,"RA_OF_ASC_NODE":265.798,"ARG_OF_PERICENTER":19.0017,"MEAN_ANOMALY":341.1456,"EPHEMERIS_TYPE":0,"CLASSIFICATION_TYPE":"U","NORAD_CAT_ID":56748,"ELEMENT_SET_NO":999,"REV_AT_EPOCH":15460,"BSTAR":0.00043416252,"MEAN_MOTION_DOT":0.00012341,"MEAN_MOTION_DDOT":0},{"OBJECT_NAME":"STARLINK-32030","OBJECT_ID":"2024-183E","EPOCH":"2026-03-09T12:18:39.546144","MEAN_MOTION":15.30184406,"ECCENTRICITY":0.00014301,"INCLINATION":53.1588,"RA_OF_ASC_NODE":143.4025,"ARG_OF_PERICENTER":88.522,"MEAN_ANOMALY":271.5945,"EPHEMERIS_TYPE":0,"CLASSIFICATION_TYPE":"U","NORAD_CAT_ID":61513,"ELEMENT_SET_NO":999,"REV_AT_EPOCH":7962,"BSTAR":0.00024694327,"MEAN_MOTION_DOT":6.958e-5,"MEAN_MOTION_DDOT":0}]
